[
  {
    "OBJECT_NAME": "FOSSASAT-2E25",
    "OBJECT_ID": "2026-067BQ",
    "EPOCH": "2026-04-21T15:09:48.520512",
    "MEAN_MOTION": 14.92029959,
    "ECCENTRICITY": 0.00034125,
    "INCLINATION": 97.7559,
    "RA_OF_ASC_NODE": 70.7865,
    "ARG_OF_PERICENTER": 100.5851,
    "MEAN_ANOMALY": 259.5752,
    "EPHEMERIS_TYPE": 0,
    "CLASSIFICATION_TYPE": "U",
    "NORAD_CAT_ID": 68478,
    "ELEMENT_SET_NO": 999,
    "REV_AT_EPOCH": 329,
    "BSTAR": 7.5019373e-05,
    "MEAN_MOTION_DOT": 7.05e-06,
    "MEAN_MOTION_DDOT": 0
  },
  {
    "OBJECT_NAME": "TRANSPORTER-16 OBJECT BR",
    "OBJECT_ID": "2026-067BR",
    "EPOCH": "2026-04-21T15:09:01.066176",
    "MEAN_MOTION": 14.92115086,
    "ECCENTRICITY": 0.00032223,
    "INCLINATION": 97.7515,
    "RA_OF_ASC_NODE": 70.7771,
    "ARG_OF_PERICENTER": 88.4447,
    "MEAN_ANOMALY": 271.7141,
    "EPHEMERIS_TYPE": 0,
    "CLASSIFICATION_TYPE": "U",
    "NORAD_CAT_ID": 68479,
    "ELEMENT_SET_NO": 999,
    "REV_AT_EPOCH": 329,
    "BSTAR": 0.00026114134,
    "MEAN_MOTION_DOT": 2.599e-05,
    "MEAN_MOTION_DDOT": 0
  },
  {
    "OBJECT_NAME": "TRANSPORTER-16 OBJECT BS",
    "OBJECT_ID": "2026-067BS",
    "EPOCH": "2026-04-21T13:22:45.878880",
    "MEAN_MOTION": 14.92566179,
    "ECCENTRICITY": 0.00056046,
    "INCLINATION": 97.7591,
    "RA_OF_ASC_NODE": 70.7364,
    "ARG_OF_PERICENTER": 95.9566,
    "MEAN_ANOMALY": 264.2292,
    "EPHEMERIS_TYPE": 0,
    "CLASSIFICATION_TYPE": "U",
    "NORAD_CAT_ID": 68480,
    "ELEMENT_SET_NO": 999,
    "REV_AT_EPOCH": 328,
    "BSTAR": 0.00027835715,
    "MEAN_MOTION_DOT": 2.806e-05,
    "MEAN_MOTION_DDOT": 0
  },
  {
    "OBJECT_NAME": "TORO3",
    "OBJECT_ID": "2026-067BT",
    "EPOCH": "2026-04-21T15:11:16.437696",
    "MEAN_MOTION": 14.91982893,
    "ECCENTRICITY": 0.00039767,
    "INCLINATION": 97.7629,
    "RA_OF_ASC_NODE": 70.7997,
    "ARG_OF_PERICENTER": 123.0775,
    "MEAN_ANOMALY": 237.0826,
    "EPHEMERIS_TYPE": 0,
    "CLASSIFICATION_TYPE": "U",
    "NORAD_CAT_ID": 68481,
    "ELEMENT_SET_NO": 999,
    "REV_AT_EPOCH": 329,
    "BSTAR": 0.0001645751,
    "MEAN_MOTION_DOT": 1.612e-05,
    "MEAN_MOTION_DDOT": 0
  },
  {
    "OBJECT_NAME": "TRANSPORTER-16 OBJECT BU",
    "OBJECT_ID": "2026-067BU",
    "EPOCH": "2026-04-21T13:22:47.136864",
    "MEAN_MOTION": 14.92564677,
    "ECCENTRICITY": 0.00051636,
    "INCLINATION": 97.7537,
    "RA_OF_ASC_NODE": 70.7255,
    "ARG_OF_PERICENTER": 82.9625,
    "MEAN_ANOMALY": 277.2182,
    "EPHEMERIS_TYPE": 0,
    "CLASSIFICATION_TYPE": "U",
    "NORAD_CAT_ID": 68482,
    "ELEMENT_SET_NO": 999,
    "REV_AT_EPOCH": 328,
    "BSTAR": 0.00028537559,
    "MEAN_MOTION_DOT": 2.879e-05,
    "MEAN_MOTION_DDOT": 0
  },
  {
    "OBJECT_NAME": "TRANSPORTER-16 OBJECT BV",
    "OBJECT_ID": "2026-067BV",
    "EPOCH": "2026-04-21T13:28:06.508416",
    "MEAN_MOTION": 14.92298231,
    "ECCENTRICITY": 0.0004768,
    "INCLINATION": 97.7609,
    "RA_OF_ASC_NODE": 70.7353,
    "ARG_OF_PERICENTER": 105.8093,
    "MEAN_ANOMALY": 254.3652,
    "EPHEMERIS_TYPE": 0,
    "CLASSIFICATION_TYPE": "U",
    "NORAD_CAT_ID": 68483,
    "ELEMENT_SET_NO": 999,
    "REV_AT_EPOCH": 328,
    "BSTAR": 0.0001227312,
    "MEAN_MOTION_DOT": 1.197e-05,
    "MEAN_MOTION_DDOT": 0
  },
  {
    "OBJECT_NAME": "TRANSPORTER-16 OBJECT BW",
    "OBJECT_ID": "2026-067BW",
    "EPOCH": "2026-04-21T13:37:48.344160",
    "MEAN_MOTION": 14.91832218,
    "ECCENTRICITY": 0.00027927,
    "INCLINATION": 97.7581,
    "RA_OF_ASC_NODE": 70.7213,
    "ARG_OF_PERICENTER": 119.976,
    "MEAN_ANOMALY": 240.1736,
    "EPHEMERIS_TYPE": 0,
    "CLASSIFICATION_TYPE": "U",
    "NORAD_CAT_ID": 68484,
    "ELEMENT_SET_NO": 999,
    "REV_AT_EPOCH": 328,
    "BSTAR": 0.00012693176,
    "MEAN_MOTION_DOT": 1.225e-05,
    "MEAN_MOTION_DDOT": 0
  },
  {
    "OBJECT_NAME": "TRANSPORTER-16 OBJECT BX",
    "OBJECT_ID": "2026-067BX",
    "EPOCH": "2026-04-21T13:35:43.558368",
    "MEAN_MOTION": 14.9202271,
    "ECCENTRICITY": 0.00029879,
    "INCLINATION": 97.755,
    "RA_OF_ASC_NODE": 70.7153,
    "ARG_OF_PERICENTER": 111.3088,
    "MEAN_ANOMALY": 248.845,
    "EPHEMERIS_TYPE": 0,
    "CLASSIFICATION_TYPE": "U",
    "NORAD_CAT_ID": 68485,
    "ELEMENT_SET_NO": 999,
    "REV_AT_EPOCH": 328,
    "BSTAR": 0.00062825678,
    "MEAN_MOTION_DOT": 6.319e-05,
    "MEAN_MOTION_DDOT": 0
  },
  {
    "OBJECT_NAME": "TRANSPORTER-16 OBJECT BY",
    "OBJECT_ID": "2026-067BY",
    "EPOCH": "2026-04-21T13:38:52.385568",
    "MEAN_MOTION": 14.91781175,
    "ECCENTRICITY": 0.00022481,
    "INCLINATION": 97.7543,
    "RA_OF_ASC_NODE": 70.7113,
    "ARG_OF_PERICENTER": 110.9056,
    "MEAN_ANOMALY": 249.2404,
    "EPHEMERIS_TYPE": 0,
    "CLASSIFICATION_TYPE": "U",
    "NORAD_CAT_ID": 68486,
    "ELEMENT_SET_NO": 999,
    "REV_AT_EPOCH": 328,
    "BSTAR": 0.00011917893,
    "MEAN_MOTION_DOT": 1.146e-05,
    "MEAN_MOTION_DDOT": 0
  },
  {
    "OBJECT_NAME": "TRANSPORTER-16 OBJECT BZ",
    "OBJECT_ID": "2026-067BZ",
    "EPOCH": "2026-04-21T13:29:53.126016",
    "MEAN_MOTION": 14.92244867,
    "ECCENTRICITY": 0.00035535,
    "INCLINATION": 97.7507,
    "RA_OF_ASC_NODE": 70.7126,
    "ARG_OF_PERICENTER": 82.8453,
    "MEAN_ANOMALY": 277.317,
    "EPHEMERIS_TYPE": 0,
    "CLASSIFICATION_TYPE": "U",
    "NORAD_CAT_ID": 68487,
    "ELEMENT_SET_NO": 999,
    "REV_AT_EPOCH": 328,
    "BSTAR": 0.00037342985,
    "MEAN_MOTION_DOT": 3.753e-05,
    "MEAN_MOTION_DDOT": 0
  },
  {
    "OBJECT_NAME": "TRANSPORTER-16 OBJECT CA",
    "OBJECT_ID": "2026-067CA",
    "EPOCH": "2026-04-21T13:44:58.730208",
    "MEAN_MOTION": 14.91494069,
    "ECCENTRICITY": 0.00011759,
    "INCLINATION": 97.754,
    "RA_OF_ASC_NODE": 70.7049,
    "ARG_OF_PERICENTER": 128.4908,
    "MEAN_ANOMALY": 231.6416,
    "EPHEMERIS_TYPE": 0,
    "CLASSIFICATION_TYPE": "U",
    "NORAD_CAT_ID": 68488,
    "ELEMENT_SET_NO": 999,
    "REV_AT_EPOCH": 328,
    "BSTAR": 0.00012239008,
    "MEAN_MOTION_DOT": 1.169e-05,
    "MEAN_MOTION_DDOT": 0
  },
  {
    "OBJECT_NAME": "TRANSPORTER-16 OBJECT CB",
    "OBJECT_ID": "2026-067CB",
    "EPOCH": "2026-04-21T13:49:42.636288",
    "MEAN_MOTION": 14.91285072,
    "ECCENTRICITY": 5.267e-05,
    "INCLINATION": 97.7501,
    "RA_OF_ASC_NODE": 70.6921,
    "ARG_OF_PERICENTER": 220.492,
    "MEAN_ANOMALY": 139.6259,
    "EPHEMERIS_TYPE": 0,
    "CLASSIFICATION_TYPE": "U",
    "NORAD_CAT_ID": 68489,
    "ELEMENT_SET_NO": 999,
    "REV_AT_EPOCH": 328,
    "BSTAR": 0.00019159692,
    "MEAN_MOTION_DOT": 1.852e-05,
    "MEAN_MOTION_DDOT": 0
  },
  {
    "OBJECT_NAME": "TRANSPORTER-16 OBJECT CC",
    "OBJECT_ID": "2026-067CC",
    "EPOCH": "2026-04-21T13:47:58.953696",
    "MEAN_MOTION": 14.91359792,
    "ECCENTRICITY": 0.0001844,
    "INCLINATION": 97.7575,
    "RA_OF_ASC_NODE": 70.7106,
    "ARG_OF_PERICENTER": 168.3155,
    "MEAN_ANOMALY": 191.8106,
    "EPHEMERIS_TYPE": 0,
    "CLASSIFICATION_TYPE": "U",
    "NORAD_CAT_ID": 68490,
    "ELEMENT_SET_NO": 999,
    "REV_AT_EPOCH": 328,
    "BSTAR": 0.00016383742,
    "MEAN_MOTION_DOT": 1.579e-05,
    "MEAN_MOTION_DDOT": 0
  },
  {
    "OBJECT_NAME": "TRANSPORTER-16 OBJECT CD",
    "OBJECT_ID": "2026-067CD",
    "EPOCH": "2026-04-21T15:29:48.384960",
    "MEAN_MOTION": 14.91135384,
    "ECCENTRICITY": 0.00016724,
    "INCLINATION": 97.7527,
    "RA_OF_ASC_NODE": 70.7617,
    "ARG_OF_PERICENTER": 218.2468,
    "MEAN_ANOMALY": 141.8632,
    "EPHEMERIS_TYPE": 0,
    "CLASSIFICATION_TYPE": "U",
    "NORAD_CAT_ID": 68491,
    "ELEMENT_SET_NO": 999,
    "REV_AT_EPOCH": 329,
    "BSTAR": 0.00014014689,
    "MEAN_MOTION_DOT": 1.335e-05,
    "MEAN_MOTION_DDOT": 0
  }
]