FOSSASAT-2E25
1 68478U 26067BQ  26111.63181158  .00000705  00000+0  75019-4 0  9995
2 68478  97.7559  70.7865 0003412 100.5851 259.5752 14.92029959  3299
TRANSPORTER-16 OBJECT BR
1 68479U 26067BR  26111.63126234  .00002599  00000+0  26114-3 0  9994
2 68479  97.7515  70.7771 0003222  88.4447 271.7141 14.92115086  3297
TRANSPORTER-16 OBJECT BS
1 68480U 26067BS  26111.55747545  .00002806  00000+0  27836-3 0  9994
2 68480  97.7591  70.7364 0005604  95.9566 264.2292 14.92566179  3288
TORO3
1 68481U 26067BT  26111.63282914  .00001612  00000+0  16458-3 0  9990
2 68481  97.7629  70.7997 0003976 123.0775 237.0826 14.91982893  3294
TRANSPORTER-16 OBJECT BU
1 68482U 26067BU  26111.55749001  .00002879  00000+0  28538-3 0  9995
2 68482  97.7537  70.7255 0005163  82.9625 277.2182 14.92564677  3284
TRANSPORTER-16 OBJECT BV
1 68483U 26067BV  26111.56118644  .00001197  00000+0  12273-3 0  9991
2 68483  97.7609  70.7353 0004768 105.8093 254.3652 14.92298231  3286
TRANSPORTER-16 OBJECT BW
1 68484U 26067BW  26111.56792065  .00001225  00000+0  12693-3 0  9995
2 68484  97.7581  70.7213 0002792 119.9760 240.1736 14.91832218  3287
TRANSPORTER-16 OBJECT BX
1 68485U 26067BX  26111.56647637  .00006319  00000+0  62826-3 0  9992
2 68485  97.7550  70.7153 0002987 111.3088 248.8450 14.92022710  3289
TRANSPORTER-16 OBJECT BY
1 68486U 26067BY  26111.56866187  .00001146  00000+0  11918-3 0  9995
2 68486  97.7543  70.7113 0002248 110.9056 249.2404 14.91781175  3288
TRANSPORTER-16 OBJECT BZ
1 68487U 26067BZ  26111.56242044  .00003753  00000+0  37343-3 0  9992
2 68487  97.7507  70.7126 0003553  82.8453 277.3170 14.92244867  3286
TRANSPORTER-16 OBJECT CA
1 68488U 26067CA  26111.57290197  .00001169  00000+0  12239-3 0  9992
2 68488  97.7540  70.7049 0001175 128.4908 231.6416 14.91494069  3284
TRANSPORTER-16 OBJECT CB
1 68489U 26067CB  26111.57618792  .00001852  00000+0  19160-3 0  9997
2 68489  97.7501  70.6921 0000526 220.4920 139.6259 14.91285072  3280
TRANSPORTER-16 OBJECT CC
1 68490U 26067CC  26111.57498789  .00001579  00000+0  16384-3 0  9992
2 68490  97.7575  70.7106 0001844 168.3155 191.8106 14.91359792  3285
TRANSPORTER-16 OBJECT CD
1 68491U 26067CD  26111.64569890  .00001335  00000+0  14015-3 0  9992
2 68491  97.7527  70.7617 0001672 218.2468 141.8632 14.91135384  3290
